*******************************************************************************
Ephemeris / WWW_USER Fri Mar  7 10:55:05 2025 Pasadena, USA      / Horizons    
*******************************************************************************
Target body name: (2018 SL3)                      {source: JPL#9}
Center body name: Earth (399)                     {source: DE441}
Center-site name: Mauna Kea
*******************************************************************************
Start time      : A.D. 2018-Aug-18 04:58:00.0000 UT      
Stop  time      : A.D. 2018-Aug-18 15:53:00.0000 UT      
Step-size       : 1 minutes
*******************************************************************************
Target pole/equ : undefined
Target radii    : undefined                                                    
Center geodetic : 204.5278, 19.8260847, 4.21024   {E-lon(deg),Lat(deg),Alt(km)}
Center cylindric: 204.5278, 6006.35451, 2151.0229 {E-lon(deg),Dxy(km),Dz(km)}
Center pole/equ : ITRF93                          {East-longitude positive}
Center radii    : 6378.137, 6378.137, 6356.752 km {Equator_a, b, pole_c}       
Target primary  : Sun
Vis. interferer : MOON (R_eq= 1737.400) km        {source: DE441}
Rel. light bend : Sun                             {source: DE441}
Rel. lght bnd GM: 1.3271E+11 km^3/s^2                                          
Small-body perts: Yes                             {source: SB441-N16}
Atmos refraction: NO (AIRLESS)
RA format       : HMS
Time format     : CAL 
Calendar mode   : Mixed Julian/Gregorian
RTS-only print  : NO       
EOP file        : eop.250306.p250602                                           
EOP coverage    : DATA-BASED 1962-JAN-20 TO 2025-MAR-06. PREDICTS-> 2025-JUN-01
Units conversion: 1 au= 149597870.700 km, c= 299792.458 km/s, 1 day= 86400.0 s 
Table cut-offs 1: Elevation (-90.0deg=NO ),Airmass (>38.000=NO), Daylight (YES)
Table cut-offs 2: Solar elongation (  0.0,180.0=NO ),Local Hour Angle( 0.0=NO )
Table cut-offs 3: RA/DEC angular rate (     0.0=NO )                           
*******************************************************************************
Initial IAU76/J2000 heliocentric ecliptic osculating elements (au, days, deg.):
  EPOCH=  2458395.5 ! 2018-Oct-04.00 (TDB)         Residual RMS= .22865        
   EC= .523832704749462    QR= .7523817427125933   TP= 2458455.4342692108      
   OM= 5.37828463666876    W=  89.37669799750542   IN= 4.07069530013935        
  Equivalent ICRF heliocentric cartesian coordinates (au, au/d):
   X= 1.077301312774806E+00  Y= 1.718701187822678E-01  Z= 8.135917115484240E-02
  VX=-1.117713770282307E-02 VY= 1.338322199759621E-02 VZ= 7.048365308861806E-03
Asteroid physical parameters (km, seconds, rotational period in hours):        
   GM= n.a.                RAD= n.a.               ROTPER= n.a.                
   H= 24.5                 G= .150                 B-V= n.a.                   
                           ALBEDO= n.a.            STYP= n.a.                  
*******************************************************************************
 Date__(UT)__HR:MN     R.A._________(ICRF)_________DEC
******************************************************
$$SOE
 2018-Aug-18 09:04  m  00 33 06.232002 -01 31 13.49198
 2018-Aug-18 09:05  m  00 33 06.257658 -01 31 13.30502
 2018-Aug-18 09:06  m  00 33 06.283297 -01 31 13.11806
 2018-Aug-18 09:07  m  00 33 06.308918 -01 31 12.93110
 2018-Aug-18 09:08  m  00 33 06.334522 -01 31 12.74414
 2018-Aug-18 09:09  m  00 33 06.360109 -01 31 12.55718
 2018-Aug-18 09:10  m  00 33 06.385678 -01 31 12.37021
 2018-Aug-18 09:11  m  00 33 06.411231 -01 31 12.18324
 2018-Aug-18 09:12  m  00 33 06.436767 -01 31 11.99627
 2018-Aug-18 09:13  m  00 33 06.462285 -01 31 11.80930
 2018-Aug-18 09:14  m  00 33 06.487787 -01 31 11.62232
 2018-Aug-18 09:15  m  00 33 06.513272 -01 31 11.43534
 2018-Aug-18 09:16  m  00 33 06.538740 -01 31 11.24836
 2018-Aug-18 09:17  m  00 33 06.564191 -01 31 11.06138
 2018-Aug-18 09:18  m  00 33 06.589625 -01 31 10.87440
 2018-Aug-18 09:19  m  00 33 06.615043 -01 31 10.68741
 2018-Aug-18 09:20  m  00 33 06.640443 -01 31 10.50042
 2018-Aug-18 09:21  m  00 33 06.665828 -01 31 10.31343
 2018-Aug-18 09:22  m  00 33 06.691195 -01 31 10.12643
 2018-Aug-18 09:23  m  00 33 06.716546 -01 31 09.93944
 2018-Aug-18 09:24  m  00 33 06.741881 -01 31 09.75244
 2018-Aug-18 09:25  m  00 33 06.767199 -01 31 09.56544
 2018-Aug-18 09:26  m  00 33 06.792501 -01 31 09.37843
 2018-Aug-18 09:27  m  00 33 06.817786 -01 31 09.19143
 2018-Aug-18 09:28  m  00 33 06.843055 -01 31 09.00442
 2018-Aug-18 09:29  m  00 33 06.868308 -01 31 08.81741
 2018-Aug-18 09:30  m  00 33 06.893544 -01 31 08.63039
 2018-Aug-18 09:31  m  00 33 06.918765 -01 31 08.44337
 2018-Aug-18 09:32  m  00 33 06.943969 -01 31 08.25635
 2018-Aug-18 09:33  m  00 33 06.969157 -01 31 08.06933
 2018-Aug-18 09:34  m  00 33 06.994329 -01 31 07.88231
 2018-Aug-18 09:35  m  00 33 07.019485 -01 31 07.69528
 2018-Aug-18 09:36  m  00 33 07.044625 -01 31 07.50825
 2018-Aug-18 09:37  m  00 33 07.069749 -01 31 07.32122
 2018-Aug-18 09:38  m  00 33 07.094857 -01 31 07.13418
 2018-Aug-18 09:39  m  00 33 07.119950 -01 31 06.94714
 2018-Aug-18 09:40  m  00 33 07.145027 -01 31 06.76010
 2018-Aug-18 09:41  m  00 33 07.170088 -01 31 06.57305
 2018-Aug-18 09:42  m  00 33 07.195133 -01 31 06.38600
 2018-Aug-18 09:43  m  00 33 07.220163 -01 31 06.19895
 2018-Aug-18 09:44  m  00 33 07.245177 -01 31 06.01190
 2018-Aug-18 09:45  m  00 33 07.270176 -01 31 05.82484
 2018-Aug-18 09:46  m  00 33 07.295159 -01 31 05.63778
 2018-Aug-18 09:47  m  00 33 07.320127 -01 31 05.45072
 2018-Aug-18 09:48  m  00 33 07.345079 -01 31 05.26365
 2018-Aug-18 09:49  m  00 33 07.370017 -01 31 05.07659
 2018-Aug-18 09:50  m  00 33 07.394939 -01 31 04.88951
 2018-Aug-18 09:51  m  00 33 07.419845 -01 31 04.70244
 2018-Aug-18 09:52  m  00 33 07.444737 -01 31 04.51536
 2018-Aug-18 09:53  m  00 33 07.469614 -01 31 04.32828
 2018-Aug-18 09:54  m  00 33 07.494475 -01 31 04.14119
 2018-Aug-18 09:55  m  00 33 07.519322 -01 31 03.95410
 2018-Aug-18 09:56  m  00 33 07.544153 -01 31 03.76701
 2018-Aug-18 09:57  m  00 33 07.568970 -01 31 03.57992
 2018-Aug-18 09:58  m  00 33 07.593772 -01 31 03.39282
 2018-Aug-18 09:59  m  00 33 07.618559 -01 31 03.20572
 2018-Aug-18 10:00  m  00 33 07.643332 -01 31 03.01861
 2018-Aug-18 10:01  m  00 33 07.668090 -01 31 02.83151
 2018-Aug-18 10:02  m  00 33 07.692833 -01 31 02.64440
 2018-Aug-18 10:03  m  00 33 07.717562 -01 31 02.45728
 2018-Aug-18 10:04     00 33 07.742276 -01 31 02.27016
 2018-Aug-18 10:05     00 33 07.766976 -01 31 02.08304
 2018-Aug-18 10:06     00 33 07.791661 -01 31 01.89592
 2018-Aug-18 10:07     00 33 07.816333 -01 31 01.70879
 2018-Aug-18 10:08     00 33 07.840989 -01 31 01.52165
 2018-Aug-18 10:09     00 33 07.865632 -01 31 01.33452
 2018-Aug-18 10:10     00 33 07.890261 -01 31 01.14738
 2018-Aug-18 10:11     00 33 07.914875 -01 31 00.96024
 2018-Aug-18 10:12     00 33 07.939476 -01 31 00.77309
 2018-Aug-18 10:13     00 33 07.964062 -01 31 00.58594
 2018-Aug-18 10:14     00 33 07.988635 -01 31 00.39879
 2018-Aug-18 10:15     00 33 08.013194 -01 31 00.21163
 2018-Aug-18 10:16     00 33 08.037739 -01 31 00.02447
 2018-Aug-18 10:17     00 33 08.062270 -01 30 59.83730
 2018-Aug-18 10:18     00 33 08.086788 -01 30 59.65013
 2018-Aug-18 10:19     00 33 08.111292 -01 30 59.46296
 2018-Aug-18 10:20     00 33 08.135782 -01 30 59.27578
 2018-Aug-18 10:21     00 33 08.160259 -01 30 59.08860
 2018-Aug-18 10:22     00 33 08.184723 -01 30 58.90142
 2018-Aug-18 10:23     00 33 08.209173 -01 30 58.71423
 2018-Aug-18 10:24     00 33 08.233610 -01 30 58.52704
 2018-Aug-18 10:25     00 33 08.258033 -01 30 58.33985
 2018-Aug-18 10:26     00 33 08.282444 -01 30 58.15265
 2018-Aug-18 10:27     00 33 08.306841 -01 30 57.96544
 2018-Aug-18 10:28     00 33 08.331226 -01 30 57.77824
 2018-Aug-18 10:29     00 33 08.355597 -01 30 57.59102
 2018-Aug-18 10:30     00 33 08.379955 -01 30 57.40381
 2018-Aug-18 10:31     00 33 08.404301 -01 30 57.21659
 2018-Aug-18 10:32     00 33 08.428634 -01 30 57.02937
 2018-Aug-18 10:33     00 33 08.452954 -01 30 56.84214
 2018-Aug-18 10:34     00 33 08.477261 -01 30 56.65491
 2018-Aug-18 10:35     00 33 08.501556 -01 30 56.46767
 2018-Aug-18 10:36     00 33 08.525838 -01 30 56.28043
 2018-Aug-18 10:37     00 33 08.550108 -01 30 56.09319
 2018-Aug-18 10:38     00 33 08.574365 -01 30 55.90594
 2018-Aug-18 10:39     00 33 08.598610 -01 30 55.71869
 2018-Aug-18 10:40     00 33 08.622843 -01 30 55.53143
 2018-Aug-18 10:41     00 33 08.647063 -01 30 55.34417
 2018-Aug-18 10:42     00 33 08.671272 -01 30 55.15691
 2018-Aug-18 10:43     00 33 08.695468 -01 30 54.96964
 2018-Aug-18 10:44     00 33 08.719652 -01 30 54.78237
 2018-Aug-18 10:45     00 33 08.743824 -01 30 54.59509
 2018-Aug-18 10:46     00 33 08.767985 -01 30 54.40781
 2018-Aug-18 10:47     00 33 08.792133 -01 30 54.22052
 2018-Aug-18 10:48     00 33 08.816270 -01 30 54.03323
 2018-Aug-18 10:49     00 33 08.840395 -01 30 53.84594
 2018-Aug-18 10:50     00 33 08.864509 -01 30 53.65864
 2018-Aug-18 10:51     00 33 08.888611 -01 30 53.47134
 2018-Aug-18 10:52     00 33 08.912701 -01 30 53.28403
 2018-Aug-18 10:53     00 33 08.936780 -01 30 53.09672
 2018-Aug-18 10:54     00 33 08.960848 -01 30 52.90940
 2018-Aug-18 10:55     00 33 08.984904 -01 30 52.72208
 2018-Aug-18 10:56     00 33 09.008950 -01 30 52.53475
 2018-Aug-18 10:57     00 33 09.032984 -01 30 52.34742
 2018-Aug-18 10:58     00 33 09.057007 -01 30 52.16009
 2018-Aug-18 10:59     00 33 09.081019 -01 30 51.97275
 2018-Aug-18 11:00     00 33 09.105020 -01 30 51.78541
 2018-Aug-18 11:01     00 33 09.129010 -01 30 51.59806
 2018-Aug-18 11:02     00 33 09.152989 -01 30 51.41071
 2018-Aug-18 11:03     00 33 09.176958 -01 30 51.22335
 2018-Aug-18 11:04     00 33 09.200916 -01 30 51.03599
 2018-Aug-18 11:05     00 33 09.224863 -01 30 50.84862
 2018-Aug-18 11:06     00 33 09.248800 -01 30 50.66125
